{
  "type": "FeatureCollection",
  "features": [
    {
      "type": "Feature",
      "properties": {
        "norad_id": 33412,
        "name": "COSMO-SKYMED 3",
        "group": "resource",
        "lat": 60.642985043731386,
        "lon": 174.2949502228814,
        "alt_km": 553.2283080647921,
        "timestamp": "2025-12-04T05:42:43.034574+00:00",
        "meta_object_name": "COSMO-SKYMED 3",
        "meta_object_id": "2008-054A",
        "meta_epoch": "2025-12-03T23:03:23.726592",
        "meta_mean_motion": 15.05221564,
        "meta_eccentricity": 0.00154847,
        "meta_inclination": 97.8465,
        "meta_ra_of_asc_node": 188.2051,
        "meta_arg_of_pericenter": 203.2574,
        "meta_mean_anomaly": 156.7952,
        "meta_ephemeris_type": 0,
        "meta_classification_type": "U",
        "meta_norad_cat_id": 33412,
        "meta_element_set_no": 999,
        "meta_rev_at_epoch": 92755,
        "meta_bstar": 0.00063051632,
        "meta_mean_motion_dot": 8.964e-05,
        "meta_mean_motion_ddot": 0,
        "tle_line1": "1 33412U 08054A   25337.96069128  .00008964  00000+0  63052-3 0  9996",
        "tle_line2": "2 33412  97.8465 188.2051 0015484 203.2574 156.7952 15.05221564927558"
      },
      "geometry": {
        "type": "Point",
        "coordinates": [
          174.2949502228814,
          60.642985043731386
        ]
      }
    },
    {
      "type": "Feature",
      "properties": {
        "norad_id": 33446,
        "name": "YAOGAN-4",
        "group": "resource",
        "lat": 14.448157220181283,
        "lon": -93.63361580944668,
        "alt_km": 612.7195445510042,
        "timestamp": "2025-12-04T05:42:43.034584+00:00",
        "meta_object_name": "YAOGAN-4",
        "meta_object_id": "2008-061A",
        "meta_epoch": "2025-12-03T19:55:41.461536",
        "meta_mean_motion": 14.82635985,
        "meta_eccentricity": 0.00143425,
        "meta_inclination": 97.9169,
        "meta_ra_of_asc_node": 268.0176,
        "meta_arg_of_pericenter": 353.1456,
        "meta_mean_anomaly": 6.9559,
        "meta_ephemeris_type": 0,
        "meta_classification_type": "U",
        "meta_norad_cat_id": 33446,
        "meta_element_set_no": 999,
        "meta_rev_at_epoch": 91671,
        "meta_bstar": 0.00033242985,
        "meta_mean_motion_dot": 2.629e-05,
        "meta_mean_motion_ddot": 0,
        "tle_line1": "1 33446U 08061A   25337.83034099  .00002629  00000+0  33243-3 0  9997",
        "tle_line2": "2 33446  97.9169 268.0176 0014342 353.1456   6.9559 14.82635985916713"
      },
      "geometry": {
        "type": "Point",
        "coordinates": [
          -93.63361580944668,
          14.448157220181283
        ]
      }
    },
    {
      "type": "Feature",
      "properties": {
        "norad_id": 33492,
        "name": "GOSAT (IBUKI)",
        "group": "resource",
        "lat": 11.196352056473863,
        "lon": -91.42881224636061,
        "alt_km": 670.5138624681304,
        "timestamp": "2025-12-04T05:42:43.034595+00:00",
        "meta_object_name": "GOSAT (IBUKI)",
        "meta_object_id": "2009-002A",
        "meta_epoch": "2025-12-03T20:45:52.301088",
        "meta_mean_motion": 14.67545981,
        "meta_eccentricity": 9.121e-05,
        "meta_inclination": 98.0771,
        "meta_ra_of_asc_node": 86.5929,
        "meta_arg_of_pericenter": 63.8564,
        "meta_mean_anomaly": 296.2734,
        "meta_ephemeris_type": 0,
        "meta_classification_type": "U",
        "meta_norad_cat_id": 33492,
        "meta_element_set_no": 999,
        "meta_rev_at_epoch": 90281,
        "meta_bstar": 0.00031038459,
        "meta_mean_motion_dot": 1.713e-05,
        "meta_mean_motion_ddot": 0,
        "tle_line1": "1 33492U 09002A   25337.86518867  .00001713  00000+0  31038-3 0  9990",
        "tle_line2": "2 33492  98.0771  86.5929 0000912  63.8564 296.2734 14.67545981902811"
      },
      "geometry": {
        "type": "Point",
        "coordinates": [
          -91.42881224636061,
          11.196352056473863
        ]
      }
    },
    {
      "type": "Feature",
      "properties": {
        "norad_id": 35681,
        "name": "DEIMOS-1",
        "group": "resource",
        "lat": 20.198085781745526,
        "lon": 136.3789702250092,
        "alt_km": 644.926982891524,
        "timestamp": "2025-12-04T05:42:43.034606+00:00",
        "meta_object_name": "DEIMOS-1",
        "meta_object_id": "2009-041A",
        "meta_epoch": "2025-12-03T23:06:25.373088",
        "meta_mean_motion": 14.74931905,
        "meta_eccentricity": 0.00026862,
        "meta_inclination": 97.7146,
        "meta_ra_of_asc_node": 138.9752,
        "meta_arg_of_pericenter": 95.9756,
        "meta_mean_anomaly": 264.176,
        "meta_ephemeris_type": 0,
        "meta_classification_type": "U",
        "meta_norad_cat_id": 35681,
        "meta_element_set_no": 999,
        "meta_rev_at_epoch": 87810,
        "meta_bstar": 0.00020692941,
        "meta_mean_motion_dot": 1.342e-05,
        "meta_mean_motion_ddot": 0,
        "tle_line1": "1 35681U 09041A   25337.96279367  .00001342  00000+0  20693-3 0  9998",
        "tle_line2": "2 35681  97.7146 138.9752 0002686  95.9756 264.1760 14.74931905878100"
      },
      "geometry": {
        "type": "Point",
        "coordinates": [
          136.3789702250092,
          20.198085781745526
        ]
      }
    },
    {
      "type": "Feature",
      "properties": {
        "norad_id": 35682,
        "name": "DUBAISAT-1",
        "group": "resource",
        "lat": -33.63088161987783,
        "lon": 114.39637810367624,
        "alt_km": 645.9491450496962,
        "timestamp": "2025-12-04T05:42:43.034617+00:00",
        "meta_object_name": "DUBAISAT-1",
        "meta_object_id": "2009-041B",
        "meta_epoch": "2025-12-03T21:43:21.494496",
        "meta_mean_motion": 14.74564092,
        "meta_eccentricity": 0.00101182,
        "meta_inclination": 97.9785,
        "meta_ra_of_asc_node": 108.7155,
        "meta_arg_of_pericenter": 344.7511,
        "meta_mean_anomaly": 15.3391,
        "meta_ephemeris_type": 0,
        "meta_classification_type": "U",
        "meta_norad_cat_id": 35682,
        "meta_element_set_no": 999,
        "meta_rev_at_epoch": 87631,
        "meta_bstar": 0.00034587999,
        "meta_mean_motion_dot": 2.255e-05,
        "meta_mean_motion_ddot": 0,
        "tle_line1": "1 35682U 09041B   25337.90510989  .00002255  00000+0  34588-3 0  9993",
        "tle_line2": "2 35682  97.9785 108.7155 0010118 344.7511  15.3391 14.74564092876313"
      },
      "geometry": {
        "type": "Point",
        "coordinates": [
          114.39637810367624,
          -33.63088161987783
        ]
      }
    },
    {
      "type": "Feature",
      "properties": {
        "norad_id": 35931,
        "name": "OCEANSAT-2",
        "group": "resource",
        "lat": -80.61578567125515,
        "lon": 40.741824631777256,
        "alt_km": 913.1247939820296,
        "timestamp": "2025-12-04T05:42:43.034627+00:00",
        "meta_object_name": "OCEANSAT-2",
        "meta_object_id": "2009-051A",
        "meta_epoch": "2025-12-03T23:15:26.670816",
        "meta_mean_motion": 13.99626568,
        "meta_eccentricity": 0.00165706,
        "meta_inclination": 98.223,
        "meta_ra_of_asc_node": 339.459,
        "meta_arg_of_pericenter": 67.8446,
        "meta_mean_anomaly": 292.4477,
        "meta_ephemeris_type": 0,
        "meta_classification_type": "U",
        "meta_norad_cat_id": 35931,
        "meta_element_set_no": 999,
        "meta_rev_at_epoch": 85202,
        "meta_bstar": -7.2665432e-05,
        "meta_mean_motion_dot": -1.44e-06,
        "meta_mean_motion_ddot": 0,
        "tle_line1": "1 35931U 09051A   25337.96905869 -.00000144  00000+0 -72665-4 0  9998",
        "tle_line2": "2 35931  98.2230 339.4590 0016570  67.8446 292.4477 13.99626568852021"
      },
      "geometry": {
        "type": "Point",
        "coordinates": [
          40.741824631777256,
          -80.61578567125515
        ]
      }
    },
    {
      "type": "Feature",
      "properties": {
        "norad_id": 35946,
        "name": "WORLDVIEW-2 (WV-2)",
        "group": "resource",
        "lat": -46.20788946126389,
        "lon": 58.390529431155265,
        "alt_km": 775.7206492766582,
        "timestamp": "2025-12-04T05:42:43.034638+00:00",
        "meta_object_name": "WORLDVIEW-2 (WV-2)",
        "meta_object_id": "2009-055A",
        "meta_epoch": "2025-12-03T21:34:40.345248",
        "meta_mean_motion": 14.37646406,
        "meta_eccentricity": 0.00054379,
        "meta_inclination": 98.4771,
        "meta_ra_of_asc_node": 49.1069,
        "meta_arg_of_pericenter": 88.0941,
        "meta_mean_anomaly": 272.0868,
        "meta_ephemeris_type": 0,
        "meta_classification_type": "U",
        "meta_norad_cat_id": 35946,
        "meta_element_set_no": 999,
        "meta_rev_at_epoch": 84758,
        "meta_bstar": 0.00013956422,
        "meta_mean_motion_dot": 3.76e-06,
        "meta_mean_motion_ddot": 0,
        "tle_line1": "1 35946U 09055A   25337.89907807  .00000376  00000+0  13956-3 0  9996",
        "tle_line2": "2 35946  98.4771  49.1069 0005437  88.0941 272.0868 14.37646406847589"
      },
      "geometry": {
        "type": "Point",
        "coordinates": [
          58.390529431155265,
          -46.20788946126389
        ]
      }
    }
  ]
}